[{"OBJECT_NAME":"SHIYAN-1 (SY-1)","OBJECT_ID":"2004-012A","EPOCH":"2026-03-09T17:40:34.066560","MEAN_MOTION":15.31043463,"ECCENTRICITY":0.00058726,"INCLINATION":97.8764,"RA_OF_ASC_NODE":140.5238,"ARG_OF_PERICENTER":23.6952,"MEAN_ANOMALY":336.4557,"EPHEMERIS_TYPE":0,"CLASSIFICATION_TYPE":"U","NORAD_CAT_ID":28220,"ELEMENT_SET_NO":999,"REV_AT_EPOCH":19586,"BSTAR":0.00054854449,"MEAN_MOTION_DOT":0.00016393,"MEAN_MOTION_DDOT":0},{"OBJECT_NAME":"STARLINK-36076","OBJECT_ID":"2025-270A","EPOCH":"2026-03-08T23:59:56.709888","MEAN_MOTION":15.27585628,"ECCENTRICITY":5.93e-5,"INCLINATION":42.9986,"RA_OF_ASC_NODE":59.7942,"ARG_OF_PERICENTER":258.8349,"MEAN_ANOMALY":101.2436,"EPHEMERIS_TYPE":0,"CLASSIFICATION_TYPE":"U","NORAD_CAT_ID":66588,"ELEMENT_SET_NO":999,"REV_AT_EPOCH":1760,"BSTAR":0.00098624046,"MEAN_MOTION_DOT":0.00026981,"MEAN_MOTION_DDOT":0}]
